[{"OBJECT_NAME":"HULIANWANG DIGUI-97","OBJECT_ID":"2025-258B","EPOCH":"2026-03-05T19:00:44.252640","MEAN_MOTION":13.29332473,"ECCENTRICITY":4.25e-5,"INCLINATION":50.0017,"RA_OF_ASC_NODE":306.7268,"ARG_OF_PERICENTER":99.5287,"MEAN_ANOMALY":260.5633,"EPHEMERIS_TYPE":0,"CLASSIFICATION_TYPE":"U","NORAD_CAT_ID":66413,"ELEMENT_SET_NO":999,"REV_AT_EPOCH":1597,"BSTAR":0.00016593,"MEAN_MOTION_DOT":-4.7e-7,"MEAN_MOTION_DDOT":0},{"OBJECT_NAME":"HULIANWANG DIGUI-98","OBJECT_ID":"2025-258C","EPOCH":"2026-03-05T18:48:40.235328","MEAN_MOTION":13.29334071,"ECCENTRICITY":4.81e-5,"INCLINATION":50.0054,"RA_OF_ASC_NODE":306.7253,"ARG_OF_PERICENTER":111.4579,"MEAN_ANOMALY":248.6345,"EPHEMERIS_TYPE":0,"CLASSIFICATION_TYPE":"U","NORAD_CAT_ID":66414,"ELEMENT_SET_NO":999,"REV_AT_EPOCH":1597,"BSTAR":0.00017122,"MEAN_MOTION_DOT":-4.5e-7,"MEAN_MOTION_DDOT":0},{"OBJECT_NAME":"HULIANWANG DIGUI-99","OBJECT_ID":"2025-258D","EPOCH":"2026-03-05T18:00:35.743680","MEAN_MOTION":13.29331549,"ECCENTRICITY":3.65e-5,"INCLINATION":50.0052,"RA_OF_ASC_NODE":306.5459,"ARG_OF_PERICENTER":93.2747,"MEAN_ANOMALY":266.8167,"EPHEMERIS_TYPE":0,"CLASSIFICATION_TYPE":"U","NORAD_CAT_ID":66415,"ELEMENT_SET_NO":999,"REV_AT_EPOCH":1596,"BSTAR":0.00015254,"MEAN_MOTION_DOT":-5.3e-7,"MEAN_MOTION_DDOT":0},{"OBJECT_NAME":"HULIANWANG DIGUI-100","OBJECT_ID":"2025-258E","EPOCH":"2026-03-05T20:24:54.392256","MEAN_MOTION":13.29334593,"ECCENTRICITY":3.48e-5,"INCLINATION":50.0056,"RA_OF_ASC_NODE":306.4146,"ARG_OF_PERICENTER":92.5209,"MEAN_ANOMALY":267.5703,"EPHEMERIS_TYPE":0,"CLASSIFICATION_TYPE":"U","NORAD_CAT_ID":66416,"ELEMENT_SET_NO":999,"REV_AT_EPOCH":1599,"BSTAR":0.00016154,"MEAN_MOTION_DOT":-4.9e-7,"MEAN_MOTION_DDOT":0},{"OBJECT_NAME":"HULIANWANG DIGUI-101","OBJECT_ID":"2025-258F","EPOCH":"2026-03-05T18:24:38.387808","MEAN_MOTION":13.2933277,"ECCENTRICITY":3.77e-5,"INCLINATION":50.0005,"RA_OF_ASC_NODE":306.5821,"ARG_OF_PERICENTER":86.4856,"MEAN_ANOMALY":273.6059,"EPHEMERIS_TYPE":0,"CLASSIFICATION_TYPE":"U","NORAD_CAT_ID":66417,"ELEMENT_SET_NO":999,"REV_AT_EPOCH":1598,"BSTAR":0.00015835,"MEAN_MOTION_DOT":-5.1e-7,"MEAN_MOTION_DDOT":0},{"OBJECT_NAME":"HULIANWANG DIGUI-102","OBJECT_ID":"2025-258G","EPOCH":"2026-03-05T19:36:45.963360","MEAN_MOTION":13.29334654,"ECCENTRICITY":3.88e-5,"INCLINATION":50.0019,"RA_OF_ASC_NODE":306.193,"ARG_OF_PERICENTER":105.2953,"MEAN_ANOMALY":254.7962,"EPHEMERIS_TYPE":0,"CLASSIFICATION_TYPE":"U","NORAD_CAT_ID":66418,"ELEMENT_SET_NO":999,"REV_AT_EPOCH":1598,"BSTAR":0.00016079,"MEAN_MOTION_DOT":-4.9e-7,"MEAN_MOTION_DDOT":0},{"OBJECT_NAME":"HULIANWANG DIGUI-103","OBJECT_ID":"2025-258H","EPOCH":"2026-03-05T19:24:46.044000","MEAN_MOTION":13.2933368,"ECCENTRICITY":3.18e-5,"INCLINATION":50.0013,"RA_OF_ASC_NODE":306.1415,"ARG_OF_PERICENTER":88.1232,"MEAN_ANOMALY":271.9676,"EPHEMERIS_TYPE":0,"CLASSIFICATION_TYPE":"U","NORAD_CAT_ID":66419,"ELEMENT_SET_NO":999,"REV_AT_EPOCH":1598,"BSTAR":0.00017001,"MEAN_MOTION_DOT":-4.5e-7,"MEAN_MOTION_DDOT":0},{"OBJECT_NAME":"HULIANWANG DIGUI-104","OBJECT_ID":"2025-258J","EPOCH":"2026-03-05T19:12:45.602784","MEAN_MOTION":13.29333054,"ECCENTRICITY":4.11e-5,"INCLINATION":50.003,"RA_OF_ASC_NODE":306.1207,"ARG_OF_PERICENTER":109.3872,"MEAN_ANOMALY":250.7044,"EPHEMERIS_TYPE":0,"CLASSIFICATION_TYPE":"U","NORAD_CAT_ID":66420,"ELEMENT_SET_NO":999,"REV_AT_EPOCH":1597,"BSTAR":0.00016223,"MEAN_MOTION_DOT":-4.9e-7,"MEAN_MOTION_DDOT":0},{"OBJECT_NAME":"HULIANWANG DIGUI-105","OBJECT_ID":"2025-285A","EPOCH":"2026-03-05T17:30:07.320096","MEAN_MOTION":13.29330874,"ECCENTRICITY":8.8e-6,"INCLINATION":50.0044,"RA_OF_ASC_NODE":157.2677,"ARG_OF_PERICENTER":295.3279,"MEAN_ANOMALY":64.7584,"EPHEMERIS_TYPE":0,"CLASSIFICATION_TYPE":"U","NORAD_CAT_ID":66915,"ELEMENT_SET_NO":999,"REV_AT_EPOCH":1229,"BSTAR":8.8031e-5,"MEAN_MOTION_DOT":-8.3e-7,"MEAN_MOTION_DDOT":0},{"OBJECT_NAME":"HULIANWANG DIGUI-106","OBJECT_ID":"2025-285B","EPOCH":"2026-03-04T19:39:18.815328","MEAN_MOTION":13.29477796,"ECCENTRICITY":0.0007099,"INCLINATION":50.0043,"RA_OF_ASC_NODE":160.4766,"ARG_OF_PERICENTER":27.2323,"MEAN_ANOMALY":332.8921,"EPHEMERIS_TYPE":0,"CLASSIFICATION_TYPE":"U","NORAD_CAT_ID":66916,"ELEMENT_SET_NO":999,"REV_AT_EPOCH":1217,"BSTAR":-1.4099,"MEAN_MOTION_DOT":-0.00628381,"MEAN_MOTION_DDOT":0},{"OBJECT_NAME":"HULIANWANG DIGUI-107","OBJECT_ID":"2025-285C","EPOCH":"2026-03-05T15:17:48.801696","MEAN_MOTION":13.29330711,"ECCENTRICITY":2.3e-6,"INCLINATION":50.0021,"RA_OF_ASC_NODE":157.4322,"ARG_OF_PERICENTER":303.9534,"MEAN_ANOMALY":56.1336,"EPHEMERIS_TYPE":0,"CLASSIFICATION_TYPE":"U","NORAD_CAT_ID":66917,"ELEMENT_SET_NO":999,"REV_AT_EPOCH":1228,"BSTAR":6.1796e-5,"MEAN_MOTION_DOT":-9.5e-7,"MEAN_MOTION_DDOT":0},{"OBJECT_NAME":"HULIANWANG DIGUI-108","OBJECT_ID":"2025-285D","EPOCH":"2026-03-05T11:29:15.387648","MEAN_MOTION":13.2933136,"ECCENTRICITY":1.9e-6,"INCLINATION":50.0044,"RA_OF_ASC_NODE":157.9452,"ARG_OF_PERICENTER":314.947,"MEAN_ANOMALY":45.14,"EPHEMERIS_TYPE":0,"CLASSIFICATION_TYPE":"U","NORAD_CAT_ID":66918,"ELEMENT_SET_NO":999,"REV_AT_EPOCH":1226,"BSTAR":8.6952e-5,"MEAN_MOTION_DOT":-8.4e-7,"MEAN_MOTION_DDOT":0},{"OBJECT_NAME":"HULIANWANG DIGUI-109","OBJECT_ID":"2025-285E","EPOCH":"2026-03-05T14:53:44.731968","MEAN_MOTION":13.29331111,"ECCENTRICITY":5.5e-6,"INCLINATION":50.0067,"RA_OF_ASC_NODE":157.3824,"ARG_OF_PERICENTER":341.0521,"MEAN_ANOMALY":19.0349,"EPHEMERIS_TYPE":0,"CLASSIFICATION_TYPE":"U","NORAD_CAT_ID":66919,"ELEMENT_SET_NO":999,"REV_AT_EPOCH":1229,"BSTAR":0.00011873,"MEAN_MOTION_DOT":-6.9e-7,"MEAN_MOTION_DDOT":0},{"OBJECT_NAME":"HULIANWANG DIGUI-110","OBJECT_ID":"2025-285F","EPOCH":"2026-03-05T16:29:58.991712","MEAN_MOTION":13.29330269,"ECCENTRICITY":5.6e-6,"INCLINATION":50.01,"RA_OF_ASC_NODE":157.0955,"ARG_OF_PERICENTER":295.4005,"MEAN_ANOMALY":64.6861,"EPHEMERIS_TYPE":0,"CLASSIFICATION_TYPE":"U","NORAD_CAT_ID":66920,"ELEMENT_SET_NO":999,"REV_AT_EPOCH":1229,"BSTAR":7.2897e-5,"MEAN_MOTION_DOT":-9.0e-7,"MEAN_MOTION_DDOT":0},{"OBJECT_NAME":"HULIANWANG DIGUI-111","OBJECT_ID":"2025-285G","EPOCH":"2026-03-05T18:06:12.612096","MEAN_MOTION":13.29330458,"ECCENTRICITY":7.6e-6,"INCLINATION":50.0117,"RA_OF_ASC_NODE":156.7962,"ARG_OF_PERICENTER":310.8726,"MEAN_ANOMALY":49.2139,"EPHEMERIS_TYPE":0,"CLASSIFICATION_TYPE":"U","NORAD_CAT_ID":66921,"ELEMENT_SET_NO":999,"REV_AT_EPOCH":1230,"BSTAR":9.6015e-5,"MEAN_MOTION_DOT":-7.9e-7,"MEAN_MOTION_DDOT":0},{"OBJECT_NAME":"HULIANWANG DIGUI-112","OBJECT_ID":"2025-285H","EPOCH":"2026-03-05T17:54:10.915488","MEAN_MOTION":13.29331072,"ECCENTRICITY":9.5e-6,"INCLINATION":50.008,"RA_OF_ASC_NODE":156.7248,"ARG_OF_PERICENTER":304.9917,"MEAN_ANOMALY":55.0947,"EPHEMERIS_TYPE":0,"CLASSIFICATION_TYPE":"U","NORAD_CAT_ID":66922,"ELEMENT_SET_NO":999,"REV_AT_EPOCH":1230,"BSTAR":0.000159,"MEAN_MOTION_DOT":-5.0e-7,"MEAN_MOTION_DDOT":0}]
