HULIANWANG DIGUI-97     
1 66413U 25258B   26064.79217885 -.00000047  00000+0  16593-3 0  9995
2 66413  50.0017 306.7268 0000425  99.5287 260.5633 13.29332473 15972
HULIANWANG DIGUI-98     
1 66414U 25258C   26064.78379902 -.00000045  00000+0  17122-3 0  9991
2 66414  50.0054 306.7253 0000481 111.4579 248.6345 13.29334071 15971
HULIANWANG DIGUI-99     
1 66415U 25258D   26064.75041370 -.00000053  00000+0  15254-3 0  9997
2 66415  50.0052 306.5459 0000365  93.2747 266.8167 13.29331549 15961
HULIANWANG DIGUI-100    
1 66416U 25258E   26064.85062954 -.00000049  00000+0  16154-3 0  9995
2 66416  50.0056 306.4146 0000348  92.5209 267.5703 13.29334593 15993
HULIANWANG DIGUI-101    
1 66417U 25258F   26064.76711097 -.00000051  00000+0  15835-3 0  9993
2 66417  50.0005 306.5821 0000377  86.4856 273.6059 13.29332770 15987
HULIANWANG DIGUI-102    
1 66418U 25258G   26064.81719865 -.00000049  00000+0  16079-3 0  9999
2 66418  50.0019 306.1930 0000388 105.2953 254.7962 13.29334654 15986
HULIANWANG DIGUI-103    
1 66419U 25258H   26064.80886625 -.00000045  00000+0  17001-3 0  9990
2 66419  50.0013 306.1415 0000318  88.1232 271.9676 13.29333680 15982
HULIANWANG DIGUI-104    
1 66420U 25258J   26064.80052781 -.00000049  00000+0  16223-3 0  9999
2 66420  50.0030 306.1207 0000411 109.3872 250.7044 13.29333054 15970
HULIANWANG DIGUI-105    
1 66915U 25285A   26064.72925139 -.00000083  00000+0  88031-4 0  9990
2 66915  50.0044 157.2677 0000088 295.3279  64.7584 13.29330874 12298
HULIANWANG DIGUI-106    
1 66916U 25285B   26063.81896777 -.00628381  00000+0 -14099+1 0  9992
2 66916  50.0043 160.4766 0007099  27.2323 332.8921 13.29477796 12170
HULIANWANG DIGUI-107    
1 66917U 25285C   26064.63737039 -.00000095  00000+0  61796-4 0  9994
2 66917  50.0021 157.4322 0000023 303.9534  56.1336 13.29330711 12282
HULIANWANG DIGUI-108    
1 66918U 25285D   26064.47865032 -.00000084  00000+0  86952-4 0  9991
2 66918  50.0044 157.9452 0000019 314.9470  45.1400 13.29331360 12262
HULIANWANG DIGUI-109    
1 66919U 25285E   26064.62065662 -.00000069  00000+0  11873-3 0  9992
2 66919  50.0067 157.3824 0000055 341.0521  19.0349 13.29331111 12292
HULIANWANG DIGUI-110    
1 66920U 25285F   26064.68748833 -.00000090  00000+0  72897-4 0  9996
2 66920  50.0100 157.0955 0000056 295.4005  64.6861 13.29330269 12292
HULIANWANG DIGUI-111    
1 66921U 25285G   26064.75431264 -.00000079  00000+0  96015-4 0  9997
2 66921  50.0117 156.7962 0000076 310.8726  49.2139 13.29330458 12308
HULIANWANG DIGUI-112    
1 66922U 25285H   26064.74595967 -.00000050  00000+0  15900-3 0  9990
2 66922  50.0080 156.7248 0000095 304.9917  55.0947 13.29331072 12307
